ONEWEB-0201             
1 48241U 21031AH  23355.80918485 -.00000121  00000+0 -36030-3 0  9997
2 48241  87.8969 110.5345 0001621  93.8419 266.2896 13.14506042129042
ONEWEB-0207             
1 48242U 21031AJ  23355.86467278  .00000192  00000+0  48377-3 0  9996
2 48242  87.8976 110.4936 0001583  97.0262 263.1048 13.14511108128969
ONEWEB-0208             
1 48243U 21031AK  23355.84643224  .00000199  00000+0  50225-3 0  9994
2 48243  87.8971 110.5135 0001842 106.1536 253.9796 13.14502056128971
ONEWEB-0200             
1 48244U 21031AL  23355.80995816 -.00000188  00000+0 -54120-3 0  9996
2 48244  87.8984 110.5181 0001890 107.5133 252.6204 13.14504348128895
ONEWEB-0217             
1 48245U 21031AM  23355.82580622 -.00000361  00000+0 -10074-2 0  9996
2 48245  87.8980 110.4991 0002036 110.4792 249.6557 13.14502270128841
ONEWEB-0211             
1 48767U 21045A   23355.74235681 -.00000054  00000+0 -17643-3 0  9992
2 48767  87.9001  80.0244 0001743 106.6139 253.5183 13.15552434124971
ONEWEB-0223             
1 48768U 21045B   23355.76453677  .00000138  00000+0  33332-3 0  9996
2 48768  87.8999  80.0230 0001978 131.7000 228.4300 13.15544581124963
ONEWEB-0230             
1 48769U 21045C   23355.73602402 -.00000061  00000+0 -19648-3 0  9997
2 48769  87.9002  80.1003 0001545 113.5708 246.5585 13.15546779125229
ONEWEB-0237             
1 48770U 21045D   23356.18125661 -.00000015  00000+0 -74221-4 0  9994
2 48770  87.9011  79.9321 0001790 121.0253 239.1053 13.15548984126130
ONEWEB-0235             
1 48771U 21045E   23355.77561447  .00000250  00000+0  62905-3 0  9999
2 48771  87.9004  80.0376 0001801 134.3638 225.7640 13.15548338124946
ONEWEB-0242             
1 48772U 21045F   23355.76927812  .00000136  00000+0  32779-3 0  9990
2 48772  87.9002  80.0286 0001649 115.8248 244.3053 13.15547937124989
ONEWEB-0241             
1 48773U 21045G   23355.75660417  .00000137  00000+0  32858-3 0  9994
2 48773  87.9016  80.0602 0002100 116.6558 243.4787 13.15550423124891
ONEWEB-0243             
1 48774U 21045H   23355.71223268 -.00000003  00000+0 -42155-4 0  9996
2 48774  87.9014  80.0277 0001619 122.4838 237.6449 13.15549704124911
ONEWEB-0222             
1 48775U 21045J   23356.15907535  .00000001  00000+0 -32280-4 0  9997
2 48775  87.9003  79.9652 0001968 117.3099 242.8232 13.15545677126132
ONEWEB-0244             
1 48776U 21045K   23355.79782100 -.00000045  00000+0 -15322-3 0  9992
2 48776  87.9001  80.0187 0001419 110.4938 249.6345 13.15546041125533
ONEWEB-0247             
1 48777U 21045L   23355.79463063 -.00000056  00000+0 -18301-3 0  9999
2 48777  87.9015  80.0445 0001931 145.9781 214.1473 13.15548601124974
ONEWEB-0245             
1 48778U 21045M   23355.78988642  .00000014  00000+0  39282-5 0  9999
2 48778  87.9003  80.0485 0002018 110.2202 249.9145 13.15547988124942
ONEWEB-0229             
1 48779U 21045N   23355.78512628  .00000067  00000+0  14414-3 0  9993
2 48779  87.9005  80.0408 0001650 115.5213 244.6088 13.15549454124972
ONEWEB-0228             
1 48780U 21045P   23355.80016549 -.00000091  00000+0 -27658-3 0  9992
2 48780  87.9001  80.0170 0001666 111.7678 248.3630 13.15541196124896
ONEWEB-0232             
1 48781U 21045Q   23355.79304126  .00000012  00000+0 -33590-5 0  9998
2 48781  87.8955  80.0507 0001522 113.2555 246.8735 13.15550435125212
ONEWEB-0231             
1 48782U 21045R   23356.15114610  .00000230  00000+0  57580-3 0  9991
2 48782  87.9013  79.9796 0001765 118.1428 241.9881 13.15551014126097
ONEWEB-0234             
1 48783U 21045S   23355.79069121  .00000026  00000+0  33686-4 0  9992
2 48783  87.9005  80.0243 0002907  86.3601 273.7862 13.15553596125040
ONEWEB-0238             
1 48784U 21045T   23355.74473879 -.00000058  00000+0 -18879-3 0  9990
2 48784  87.9001  80.0521 0001809 103.9035 256.2296 13.15543506124937
ONEWEB-0240             
1 48785U 21045U   23355.75423810  .00000040  00000+0  73049-4 0  9992
2 48785  87.9001  80.0188 0002144 116.8400 243.2950 13.15549069124965
ONEWEB-0246             
1 48786U 21045V   23355.74868464  .00000008  00000+0 -11785-4 0  9994
2 48786  87.9000  80.0214 0001728 120.9362 239.1938 13.15547453124836
ONEWEB-0210             
1 48787U 21045W   23355.79937838 -.00000096  00000+0 -29029-3 0  9999
2 48787  87.9004  80.0186 0001362 132.8568 227.2677 13.15546834124888
ONEWEB-0214             
1 48788U 21045X   23356.18917620 -.00000059  00000+0 -18972-3 0  9995
2 48788  87.9001  79.9296 0001162 125.4349 234.6890 13.15550676126024
ONEWEB-0221             
1 48789U 21045Y   23355.73917631 -.00000071  00000+0 -22270-3 0  9998
2 48789  87.9004  80.0321 0001856 114.8633 245.2690 13.15548053124938
ONEWEB-0213             
1 48790U 21045Z   23356.18441979 -.00000017  00000+0 -78397-4 0  9999
2 48790  87.9006  79.9606 0001873 122.3607 237.7705 13.15547071126180
ONEWEB-0212             
1 48791U 21045AA  23355.78115715  .00000131  00000+0  31483-3 0  9990
2 48791  87.9006  80.0201 0001799 105.0806 255.0524 13.15551212124992
ONEWEB-0227             
1 48792U 21045AB  23355.78037138  .00000167  00000+0  40946-3 0  9996
2 48792  87.9006  80.0380 0001804 109.9533 250.1792 13.15546797124948
ONEWEB-0226             
1 48793U 21045AC  23355.77403298  .00000199  00000+0  49480-3 0  9997
2 48793  87.9005  80.0470 0001575 127.7612 232.3661 13.15546961124916
ONEWEB-0224             
1 48794U 21045AD  23355.73758950 -.00000051  00000+0 -17044-3 0  9992
2 48794  87.9013  80.0662 0002284 106.5373 253.6008 13.15548888124838
ONEWEB-0233             
1 48795U 21045AE  23356.18998605 -.00000090  00000+0 -27420-3 0  9998
2 48795  87.8955  79.9923 0001516 109.8456 250.2838 13.15550684126029
ONEWEB-0190             
1 48796U 21045AF  23355.72966661 -.00000079  00000+0 -24319-3 0  9996
2 48796  87.9001  80.0469 0002105 138.3991 221.7300 13.15548167124924
ONEWEB-0236             
1 48797U 21045AG  23355.74710392 -.00000054  00000+0 -17846-3 0  9997
2 48797  87.9011  80.0278 0001866 110.2970 249.8360 13.15549737124812
ONEWEB-0248             
1 48798U 21045AH  23355.75977521  .00000056  00000+0  11478-3 0  9993
2 48798  87.9004  80.0319 0002554 125.3690 234.7679 13.15546284124979
ONEWEB-0225             
1 48799U 21045AJ  23355.78195370  .00000083  00000+0  18763-3 0  9995
2 48799  87.9000  80.0342 0001881 119.4804 240.6514 13.15547421124984
ONEWEB-0215             
1 48800U 21045AK  23355.75184162 -.00000134  00000+0 -39076-3 0  9991
2 48800  87.9000  80.0210 0002372 129.5376 230.5964 13.15549292124854
ONEWEB-0216             
1 48801U 21045AL  23356.14163572 -.00008395  00000+0 -22341-1 0  9990
2 48801  87.9001  79.9824 0001560 116.6165 243.5125 13.15590181126033
ONEWEB-0239             
1 48802U 21045AM  23356.14639813  .00000200  00000+0  49792-3 0  9993
2 48802  87.9012  79.9416 0002471 125.2894 234.8468 13.15548223126099
ONEWEB-0249             
1 48967U 21060A   23355.66043337 -.00000031  00000+0 -11526-3 0  9996
2 48967  87.9075  49.5952 0001818 101.8759 258.2575 13.16594775120066
ONEWEB-0250             
1 48968U 21060B   23356.12064293  .00000073  00000+0  15829-3 0  9997
2 48968  87.9073  49.4879 0001980 107.3510 252.7838 13.16594696121398
ONEWEB-0252             
1 48970U 21060D   23355.69210103  .00000105  00000+0  24006-3 0  9997
2 48970  87.9075  49.5820 0001623 104.0544 256.0767 13.16593041120115
ONEWEB-0253             
1 48971U 21060E   23355.68153951  .00000072  00000+0  15451-3 0  9991
2 48971  87.9064  49.6024 0001792 113.1961 246.9359 13.16594166120048
ONEWEB-0254             
1 48972U 21060F   23356.14598046  .00000202  00000+0  49423-3 0  9993
2 48972  87.9076  49.4812 0001836 111.2492 248.8835 13.16596191121380
ONEWEB-0255             
1 48973U 21060G   23356.18396636 -.00000206  00000+0 -57368-3 0  9992
2 48973  87.9073  49.5092 0001830  97.7614 262.3725 13.16593451121472
ONEWEB-0256             
1 48974U 21060H   23355.67732335 -.00001420  00000+0 -37477-2 0  9993
2 48974  87.9069  49.6099 0001609  97.9461 262.1852 13.16600126120085
ONEWEB-0257             
1 48975U 21060J   23355.71110622 -.00000089  00000+0 -26730-3 0  9999
2 48975  87.9074  49.5773 0001591 101.0396 259.0914 13.16594848120047
ONEWEB-0258             
1 48976U 21060K   23355.71320959 -.00000072  00000+0 -22211-3 0  9998
2 48976  87.9076  49.6059 0001802  99.5616 260.5719 13.16595322120058
ONEWEB-0259             
1 48977U 21060L   23355.70687775  .00000006  00000+0 -17502-4 0  9994
2 48977  87.9075  49.5923 0002078 105.3680 254.7681 13.16592881120083
ONEWEB-0260             
1 48978U 21060M   23355.70054265  .00000070  00000+0  14829-3 0  9995
2 48978  87.9074  49.6236 0001054 105.6864 254.4383 13.16593370120069
ONEWEB-0261             
1 48979U 21060N   23355.59077249  .00001061  00000+0  27412-2 0  9992
2 48979  87.9069  49.6354 0001817 120.7574 239.3736 13.16588688120103
ONEWEB-0262             
1 48980U 21060P   23355.72376860 -.00000015  00000+0 -73592-4 0  9992
2 48980  87.9072  49.5753 0002127 106.9870 253.1494 13.16594040120082
ONEWEB-0263             
1 48981U 21060Q   23355.67943676  .00000103  00000+0  23692-3 0  9993
2 48981  87.9070  49.5969 0001927 116.5879 243.5449 13.16594462120040
ONEWEB-0264             
1 48982U 21060R   23355.71639022 -.00000440  00000+0 -11849-2 0  9992
2 48982  87.9101  49.5976 0001951  89.4522 270.6833 13.16590774120055
ONEWEB-0266             
1 48984U 21060T   23355.66257671 -.00003294  00000+0 -86572-2 0  9999
2 48984  87.9074  49.5929 0001862  91.3284 268.8060 13.16567276120032
ONEWEB-0267             
1 48985U 21060U   23355.59710707  .00000045  00000+0  84374-4 0  9995
2 48985  87.9072  49.6071 0001592 114.7788 245.3509 13.16592624120032
ONEWEB-0268             
1 48986U 21060V   23355.64144040  .00000014  00000+0  37161-5 0  9992
2 48986  87.9077  49.6035 0001659 102.1836 257.9481 13.16590878120304
